satname,norad_id,inclination_deg,eccentricity,mean_motion_rev_per_day,perigee_km,apogee_km,l1,l2
STARLINK-1361,45567,53.0535,0.0001125,15.06381361,546.4895762383085,548.0477925172936,1 45567U 20025AN  25294.42990510  .00002018  00000+0  15440-3 0  9995,2 45567  53.0535 351.7806 0001125  94.7130 265.3988 15.06381361304386
STARLINK-1363,45568,53.0566,0.0001319,15.25672498,487.8610488312743,489.6725380519829,1 45568U 20025AP  25294.91667823  .01059281  00000+0  37576-1 0  9995,2 45568  53.0566 349.1361 0001319  91.9523 310.2900 15.25672498  5701
STARLINK-1366,45569,53.0549,7.88e-05,15.28752812,478.9991354103522,480.0799052299544,1 45569U 20025AQ  25294.91667823  .01752942  00000+0  56575-1 0  9990,2 45569  53.0549 348.6707 0000788  81.3511 135.9840 15.28752812  5707
STARLINK-1376,45570,53.0555,0.0001515,15.06413767,546.1201804732245,548.2185483016337,1 45570U 20025AR  25294.42620265 -.00009257  00000+0 -60313-3 0  9999,2 45570  53.0555 351.7979 0001515  82.9746 277.1416 15.06413767304370
STARLINK-1320,45572,53.0586,0.000998,15.40391702,438.14294642460027,451.76183284631315,1 45572U 20025AT  25294.21761917  .00035493  00000+0  86947-3 0  9998,2 45572  53.0586 298.6360 0009980 331.5807  28.4652 15.40391702305129
STARLINK-1321,45573,53.0559,0.0001345,15.06393613,546.299671228624,548.1625952564655,1 45573U 20025AU  25294.54509450  .00010068  00000+0  69391-3 0  9992,2 45573  53.0559 341.2634 0001345  73.8406 286.2731 15.06393613304235
STARLINK-1328,45576,53.0523,0.0009748,15.64405374,368.3665281341973,381.53234545137,1 45576U 20025AX  25294.91667823  .00203286  00000+0  20307-2 0  9994,2 45576  53.0523 319.9997 0009748 357.5522 176.8246 15.64405374  5784
STARLINK-1331,45578,53.0547,0.0001685,15.06383988,546.0937033456858,548.4275623479562,1 45578U 20025AZ  25294.52297978  .00013768  00000+0  94179-3 0  9996,2 45578  53.0547 341.3630 0001685 103.0014 257.1163 15.06383988304546
STARLINK-1333,45580,53.0546,0.0001373,15.06399371,546.2626351116633,548.1643363550465,1 45580U 20025BB  25294.46307472  .00006919  00000+0  48293-3 0  9999,2 45580  53.0546 351.6291 0001373 102.6922 257.4220 15.06399371304384
STARLINK-1335,45581,53.0554,0.000147,15.06376361,546.2659721277541,548.3020459044046,1 45581U 20025BC  25294.53403571  .00010152  00000+0  69991-3 0  9997,2 45581  53.0554 341.3137 0001470  73.2223 286.8927 15.06376361304535
STARLINK-1337,45582,53.0556,0.0001368,15.06382036,546.3192203435201,548.2140107727373,1 45582U 20025BD  25294.55612598  .00002249  00000+0  16989-3 0  9998,2 45582  53.0556 341.2151 0001368  83.6315 276.4829 15.06382036304538
STARLINK-1347,45586,53.0543,0.0005683,15.29594289,473.1284219545105,480.91999818587647,1 45586U 20025BH  25294.39791254  .00076500  00000+0  26158-2 0  9990,2 45586  53.0543 329.1537 0005683 307.7496  52.2988 15.29594289304687
STARLINK-1360,45588,53.0456,0.0006131,15.73022858,346.1380786063246,354.38844300612527,1 45588U 20025BK  25294.91667823  .00138503  00000+0  98148-3 0  9995,2 45588  53.0456 248.3975 0006131  88.0885 193.8761 15.73022858  5912
STARLINK-1364,45589,53.0553,0.0001441,15.06383681,546.2636238399527,548.2595237089145,1 45589U 20025BL  25294.42714267  .00013584  00000+0  92946-3 0  9998,2 45589  53.0553 341.7984 0001441  98.1575 261.9577 15.06383681304516
STARLINK-1365,45590,53.0539,0.0001261,15.06393708,546.3575531942988,548.1041309640705,1 45590U 20025BM  25294.50914875  .00003423  00000+0  24859-3 0  9995,2 45590  53.0539  11.4248 0001261 105.2574 254.8555 15.06393708304120
STARLINK-1443,45660,53.0542,0.0001261,15.06381004,546.396484759387,548.1430723489384,1 45660U 20035D   25294.42806565  .00008632  00000+0  59800-3 0  9992,2 45660  53.0542 331.7917 0001261  88.9789 271.1345 15.06381004297742
STARLINK-1446,45663,53.027,9.57e-05,15.32488876,467.73419317275693,469.0446183268168,1 45663U 20035G   25294.41503974  .00074989  00000+0  23453-2 0  9994,2 45663  53.0270 296.6699 0000957 293.4168  66.6731 15.32488876298239
STARLINK-1448,45665,53.0542,0.0001301,15.06384452,546.3582166818051,548.160204775837,1 45665U 20035J   25294.49809630  .00010331  00000+0  71173-3 0  9996,2 45665  53.0542 331.4735 0001301 104.9445 255.1689 15.06384452297748
STARLINK-1451,45668,53.0541,0.0001463,15.06385517,546.2427616148934,548.2691315910688,1 45668U 20035M   25294.50182121  .00013664  00000+0  93482-3 0  9999,2 45668  53.0541 331.7758 0001463 108.4527 251.6621 15.06385517297758
STARLINK-1452,45669,53.039,0.0010019,15.25489467,482.4355503148463,496.196552739495,1 45669U 20035N   25294.34173383  .00079212  00000+0  30640-2 0  9999,2 45669  53.0390 314.8545 0010019 340.4727  19.5885 15.25489467297971
STARLINK-1453,45670,53.0541,0.0001395,15.06391125,546.2726687502545,548.2048485869218,1 45670U 20035P   25294.31286763  .00008340  00000+0  57825-3 0  9994,2 45670  53.0541 302.3093 0001395 101.4043 258.7103 15.06391125298034
STARLINK-1454,45671,53.0551,0.0001472,15.063797,546.2543547471223,548.2931956793445,1 45671U 20035Q   25294.25850972  .00014096  00000+0  96385-3 0  9996,2 45671  53.0551 332.5523 0001472  79.9469 280.1686 15.06379700297709
STARLINK-1456,45673,53.0547,0.0001468,15.06378657,546.2603211605756,548.293622702734,1 45673U 20035S   25294.53864544  .00009229  00000+0  63802-3 0  9999,2 45673  53.0547 331.2968 0001468  72.4114 287.7035 15.06378657297762
STARLINK-1457,45674,53.0547,0.0001409,15.06388922,546.2697242250788,548.2212970165729,1 45674U 20035T   25294.54601360  .00011910  00000+0  81735-3 0  9991,2 45674  53.0547 331.2601 0001409 110.1699 249.9441 15.06388922297734
STARLINK-1458,45675,53.0553,0.0001529,15.06375427,546.2279743579284,548.3457689778852,1 45675U 20035U   25294.26956235  .00011560  00000+0  79417-3 0  9990,2 45675  53.0553 332.4998 0001529 109.0604 251.0551 15.06375427297686
STARLINK-1460,45676,53.0541,0.0001382,15.0638087,546.3130979799716,548.2272805270813,1 45676U 20035V   25294.50547287  .00013831  00000+0  94608-3 0  9993,2 45676  53.0541 331.4409 0001382  84.4008 275.7138 15.06380870297717
STARLINK-1392,45677,53.056,0.0001488,15.06386297,546.223057863318,548.2840540927773,1 45677U 20035W   25294.51651693  .00002074  00000+0  15811-3 0  9998,2 45677  53.0560 331.3934 0001488  92.2023 267.9137 15.06386297297757
STARLINK-1394,45679,53.0544,0.0001217,15.06388492,546.4040093134281,548.0896477372917,1 45679U 20035Y   25294.64645161  .00006615  00000+0  46272-3 0  9997,2 45679  53.0544 320.8080 0001217  95.5736 264.5392 15.06388492297916
STARLINK-1402,45685,53.0533,0.0001749,15.19640428,505.722281781369,508.1306769864568,1 45685U 20035AE  25294.91667823  .01079744  00000+0  46289-1 0  9993,2 45685  53.0533 313.5369 0001749  79.1051  28.5790 15.19640428  5593
STARLINK-1404,45686,53.0537,0.0001432,15.06385546,546.2641414635109,548.2475739779611,1 45686U 20035AF  25294.40687053  .00011287  00000+0  77569-3 0  9999,2 45686  53.0537 321.8869 0001432  84.5399 275.5753 15.06385546297880
STARLINK-1413,45689,53.0544,0.0001568,15.0639238,546.1490139234047,548.320810555083,1 45689U 20035AJ  25294.49163899  .00004641  00000+0  33031-3 0  9990,2 45689  53.0544 321.5019 0001568  93.3738 266.7430 15.06392380297800
STARLINK-1417,45693,53.0541,0.0001598,15.06390839,546.132960039833,548.3463104124512,1 45693U 20035AN  25294.35526247  .00011231  00000+0  77182-3 0  9998,2 45693  53.0541 322.1189 0001598  98.9401 261.1769 15.06390839297865
STARLINK-1420,45695,53.0533,0.0001473,15.06389594,546.2233424726983,548.2635595535676,1 45695U 20035AQ  25294.42250404  .00009120  00000+0  63055-3 0  9995,2 45695  53.0533 301.8038 0001473  81.2167 278.8989 15.06389594298160
STARLINK-1422,45696,53.0545,0.0001492,15.0638513,546.2238639169018,548.2904015261065,1 45696U 20035AR  25294.23362290  .00011236  00000+0  77233-3 0  9996,2 45696  53.0545 322.6647 0001492 101.9782 258.1375 15.06385130297841
STARLINK-1351,45697,53.0568,0.0001949,15.0640336,545.8515116144654,548.5510084682301,1 45697U 20035AS  25294.40869799 -.00002116  00000+0 -12315-3 0  9991,2 45697  53.0568 301.8759 0001949  95.5255 264.5957 15.06403360298169
STARLINK-1398,45699,53.051,0.0002517,15.48504524,419.3887793959884,422.8115153759818,1 45699U 20035AU  25294.91667823  .00155339  00000+0  28240-2 0  9990,2 45699  53.0510 262.2143 0002517  58.0990 359.7904 15.48504524  5746
STARLINK-1400,45700,53.0551,0.0001622,15.06398366,546.0932735690731,548.3398582658565,1 45700U 20035AV  25294.44924543  .00002872  00000+0  21165-3 0  9999,2 45700  53.0551 301.6959 0001622  87.5491 272.5684 15.06398366298162
STARLINK-1403,45701,53.0563,0.0001836,15.06394747,545.9561607223422,548.4991546246401,1 45701U 20035AW  25294.41238534 -.00000056  00000+0  15167-4 0  9994,2 45701  53.0563 301.8620 0001836 100.0645 260.0551 15.06394747298155
STARLINK-1407,45703,53.0409,0.0011128,15.39217062,440.8266725471294,456.0198650814036,1 45703U 20035AY  25294.23590394  .00119014  00000+0  29726-2 0  9999,2 45703  53.0409 263.7320 0011128  14.0192 346.1118 15.39217062298688
STARLINK-1411,45706,53.0527,0.0001815,15.38148349,450.3453932020784,452.82458228362975,1 45706U 20035BB  25294.91667823  .00183382  00000+0  47055-2 0  9993,2 45706  53.0527 287.5701 0001815  89.0774  71.8163 15.38148349  5766
STARLINK-1423,45710,53.0537,0.0001419,15.06395889,546.241448841578,548.2068663381015,1 45710U 20035BF  25294.43818587  .00004643  00000+0  33042-3 0  9994,2 45710  53.0537 301.7459 0001419 100.7967 259.3182 15.06395889298166
STARLINK-1433,45711,53.0533,0.0001349,15.06382963,546.3295378171642,548.1980109460919,1 45711U 20035BG  25294.28706908  .00000768  00000+0  70442-4 0  9991,2 45711  53.0533 302.4194 0001349  90.8065 269.3079 15.06382963298139
STARLINK-1434,45712,53.0527,0.0003983,15.14437288,519.9388360956482,525.4360328401453,1 45712U 20035BH  25294.30829959  .00051598  00000+0  27708-2 0  9999,2 45712  53.0527 299.1039 0003983  21.6823 338.4338 15.14437288298195
